start=new Date('2023-06-22T00:00:00.000Z').valueOf();
sats=[{"PERIAPSIS":"562.388","COUNTRY_CODE":"US","CENTER_NAME":"EARTH","DECAY_DATE":null,"MEAN_MOTION":"15.01263638","GP_ID":"234434516","ECCENTRICITY":"0.00008820","FILE":"3939133","TIME_SYSTEM":"UTC","NORAD_CAT_ID":"53085","RCS_SIZE":"LARGE","ARG_OF_PERICENTER":"105.7286","PERIOD":"95.919","RA_OF_ASC_NODE":"353.4724","REF_FRAME":"TEME","SITE":"AFWTR","TLE_LINE1":"1 53085U 22077AU  23172.45955665  .00000480  00000-0  41958-4 0  9992","APOAPSIS":"563.613","EPHEMERIS_TYPE":"0","BSTAR":"0.00004195800000","MEAN_ELEMENT_THEORY":"SGP4","REV_AT_EPOCH":"5205","INCLINATION":"97.6600","CLASSIFICATION_TYPE":"U","MEAN_ANOMALY":"254.4035","ELEMENT_SET_NO":"999","EPOCH":"2023-06-21T11:01:45.694560","OBJECT_NAME":"STARLINK-4324","OBJECT_ID":"2022-077AU","OBJECT_TYPE":"PAYLOAD","SEMIMAJOR_AXIS":"6941.136","LAUNCH_DATE":"2022-07-11","TLE_LINE2":"2 53085  97.6600 353.4724 0000882 105.7286 254.4035 15.01263638 52056","MEAN_MOTION_DOT":"0.00000480","MEAN_MOTION_DDOT":"0.0000000000000"},{"MEAN_MOTION_DDOT":"0.0000000000000","MEAN_MOTION_DOT":"0.00000801","TLE_LINE2":"2 53086  97.6587 353.4660 0002691  99.4185 260.7343 15.01262364 52054","LAUNCH_DATE":"2022-07-11","SEMIMAJOR_AXIS":"6941.140","OBJECT_TYPE":"PAYLOAD","OBJECT_NAME":"STARLINK-4318","OBJECT_ID":"2022-077AV","EPOCH":"2023-06-21T11:06:44.950464","MEAN_ANOMALY":"260.7343","CLASSIFICATION_TYPE":"U","ELEMENT_SET_NO":"999","INCLINATION":"97.6587","REV_AT_EPOCH":"5205","MEAN_ELEMENT_THEORY":"SGP4","BSTAR":"0.00006695600000","EPHEMERIS_TYPE":"0","APOAPSIS":"564.872","SITE":"AFWTR","REF_FRAME":"TEME","TLE_LINE1":"1 53086U 22077AV  23172.46302026  .00000801  00000-0  66956-4 0  9993","RA_OF_ASC_NODE":"353.4660","RCS_SIZE":"LARGE","PERIOD":"95.919","ARG_OF_PERICENTER":"99.4185","NORAD_CAT_ID":"53086","TIME_SYSTEM":"UTC","GP_ID":"234435266","FILE":"3939133","ECCENTRICITY":"0.00026910","MEAN_MOTION":"15.01262364","CENTER_NAME":"EARTH","DECAY_DATE":null,"COUNTRY_CODE":"US","PERIAPSIS":"561.137"},{"TLE_LINE2":"2 53087  97.6601 353.4586 0001636 168.0768 192.0495 15.01264781 52057","LAUNCH_DATE":"2022-07-11","MEAN_MOTION_DOT":"0.00000576","MEAN_MOTION_DDOT":"0.0000000000000","OBJECT_NAME":"STARLINK-4329","OBJECT_ID":"2022-077AW","SEMIMAJOR_AXIS":"6941.132","OBJECT_TYPE":"PAYLOAD","EPOCH":"2023-06-21T11:04:04.583424","MEAN_ANOMALY":"192.0495","CLASSIFICATION_TYPE":"U","ELEMENT_SET_NO":"999","EPHEMERIS_TYPE":"0","BSTAR":"0.00004940200000","REV_AT_EPOCH":"5205","INCLINATION":"97.6601","MEAN_ELEMENT_THEORY":"SGP4","APOAPSIS":"564.133","PERIOD":"95.919","RCS_SIZE":"LARGE","ARG_OF_PERICENTER":"168.0768","NORAD_CAT_ID":"53087","SITE":"AFWTR","REF_FRAME":"TEME","TLE_LINE1":"1 53087U 22077AW  23172.46116416  .00000576  00000-0  49402-4 0  9996","RA_OF_ASC_NODE":"353.4586","TIME_SYSTEM":"UTC","CENTER_NAME":"EARTH","DECAY_DATE":null,"COUNTRY_CODE":"US","PERIAPSIS":"561.862","GP_ID":"234435518","FILE":"3939133","ECCENTRICITY":"0.00016360","MEAN_MOTION":"15.01264781"},{"OBJECT_NAME":"STARLINK-4333","OBJECT_ID":"2022-077AX","SEMIMAJOR_AXIS":"6941.165","OBJECT_TYPE":"PAYLOAD","TLE_LINE2":"2 53088  97.6600 353.4686 0002531  64.2144 295.9341 15.01254153 52053","LAUNCH_DATE":"2022-07-11","MEAN_MOTION_DDOT":"0.0000000000000","MEAN_MOTION_DOT":"-0.00000092","EPHEMERIS_TYPE":"0","BSTAR":"-0.00000252630000","REV_AT_EPOCH":"5205","INCLINATION":"97.6600","MEAN_ELEMENT_THEORY":"SGP4","EPOCH":"2023-06-21T11:01:25.720608","CLASSIFICATION_TYPE":"U","MEAN_ANOMALY":"295.9341","ELEMENT_SET_NO":"999","RCS_SIZE":"LARGE","PERIOD":"95.920","ARG_OF_PERICENTER":"64.2144","NORAD_CAT_ID":"53088","REF_FRAME":"TEME","SITE":"AFWTR","TLE_LINE1":"1 53088U 22077AX  23172.45932547 -.00000092  00000-0 -25263-5 0  9992","RA_OF_ASC_NODE":"353.4686","APOAPSIS":"564.787","CENTER_NAME":"EARTH","DECAY_DATE":null,"COUNTRY_CODE":"US","PERIAPSIS":"561.273","GP_ID":"234435766","ECCENTRICITY":"0.00025310","FILE":"3939133","MEAN_MOTION":"15.01254153","TIME_SYSTEM":"UTC"},{"NORAD_CAT_ID":"53132","RCS_SIZE":"LARGE","PERIOD":"95.437","ARG_OF_PERICENTER":"83.0640","RA_OF_ASC_NODE":"307.5333","TLE_LINE1":"1 53132U 22083A   23172.65599237  .00001777  00000-0  12966-3 0  9999","SITE":"AFETR","REF_FRAME":"TEME","APOAPSIS":"540.275","PERIAPSIS":"539.182","COUNTRY_CODE":"US","DECAY_DATE":null,"CENTER_NAME":"EARTH","MEAN_MOTION":"15.08845475","ECCENTRICITY":"0.00007900","FILE":"3939205","GP_ID":"234440433","TIME_SYSTEM":"UTC","OBJECT_ID":"2022-083A","OBJECT_NAME":"STARLINK-4063","OBJECT_TYPE":"PAYLOAD","SEMIMAJOR_AXIS":"6917.864","LAUNCH_DATE":"2022-07-17","TLE_LINE2":"2 53132  53.2166 307.5333 0000790  83.0640 277.0442 15.08845475 52088","MEAN_MOTION_DDOT":"0.0000000000000","MEAN_MOTION_DOT":"0.00001777","EPHEMERIS_TYPE":"0","BSTAR":"0.00012966000000","MEAN_ELEMENT_THEORY":"SGP4","REV_AT_EPOCH":"5208","INCLINATION":"53.2166","ELEMENT_SET_NO":"999","MEAN_ANOMALY":"277.0442","CLASSIFICATION_TYPE":"U","EPOCH":"2023-06-21T15:44:37.740768"},{"APOAPSIS":"540.258","TLE_LINE1":"1 53133U 22083B   23172.54191380  .00008419  00000-0  54639-3 0  9998","SITE":"AFETR","REF_FRAME":"TEME","RA_OF_ASC_NODE":"308.0476","ARG_OF_PERICENTER":"57.7998","RCS_SIZE":"LARGE","PERIOD":"95.438","NORAD_CAT_ID":"53133","TIME_SYSTEM":"UTC","ECCENTRICITY":"0.00007380","FILE":"3939133","GP_ID":"234435768","MEAN_MOTION":"15.08839380","DECAY_DATE":null,"CENTER_NAME":"EARTH","PERIAPSIS":"539.237","COUNTRY_CODE":"US","MEAN_MOTION_DOT":"0.00008419","MEAN_MOTION_DDOT":"0.0000000000000","TLE_LINE2":"2 53133  53.2173 308.0476 0000738  57.7998 302.3066 15.08839380 51426","LAUNCH_DATE":"2022-07-17","SEMIMAJOR_AXIS":"6917.882","OBJECT_TYPE":"PAYLOAD","OBJECT_ID":"2022-083B","OBJECT_NAME":"STARLINK-4154","EPOCH":"2023-06-21T13:00:21.352320","ELEMENT_SET_NO":"999","CLASSIFICATION_TYPE":"U","MEAN_ANOMALY":"302.3066","INCLINATION":"53.2173","REV_AT_EPOCH":"5142","MEAN_ELEMENT_THEORY":"SGP4","BSTAR":"0.00054639000000","EPHEMERIS_TYPE":"0"},{"INCLINATION":"53.2175","REV_AT_EPOCH":"5208","MEAN_ELEMENT_THEORY":"SGP4","EPHEMERIS_TYPE":"0","BSTAR":"0.00092621000000","EPOCH":"2023-06-21T15:55:13.924704","ELEMENT_SET_NO":"999","CLASSIFICATION_TYPE":"U","MEAN_ANOMALY":"284.0491","SEMIMAJOR_AXIS":"6917.863","OBJECT_TYPE":"PAYLOAD","OBJECT_ID":"2022-083C","OBJECT_NAME":"STARLINK-4150","MEAN_MOTION_DOT":"0.00014486","MEAN_MOTION_DDOT":"0.0000000000000","TLE_LINE2":"2 53134  53.2175 307.4967 0001093  76.0622 284.0491 15.08845627 52082","LAUNCH_DATE":"2022-07-17","FILE":"3939208","ECCENTRICITY":"0.00010930","GP_ID":"234440473","MEAN_MOTION":"15.08845627","DECAY_DATE":null,"CENTER_NAME":"EARTH","PERIAPSIS":"538.972","COUNTRY_CODE":"US","TIME_SYSTEM":"UTC","TLE_LINE1":"1 53134U 22083C   23172.66335561  .00014486  00000-0  92621-3 0  9997","SITE":"AFETR","REF_FRAME":"TEME","RA_OF_ASC_NODE":"307.4967","RCS_SIZE":"LARGE","PERIOD":"95.437","ARG_OF_PERICENTER":"76.0622","NORAD_CAT_ID":"53134","APOAPSIS":"540.484"},{"DECAY_DATE":null,"CENTER_NAME":"EARTH","COUNTRY_CODE":"US","PERIAPSIS":"539.055","ECCENTRICITY":"0.00009890","FILE":"3939230","GP_ID":"234440987","MEAN_MOTION":"15.08841957","TIME_SYSTEM":"UTC","ARG_OF_PERICENTER":"84.6415","RCS_SIZE":"LARGE","PERIOD":"95.437","NORAD_CAT_ID":"53135","TLE_LINE1":"1 53135U 22083D   23172.67071492  .00000665  00000-0  59856-4 0  9997","REF_FRAME":"TEME","SITE":"AFETR","RA_OF_ASC_NODE":"307.4691","APOAPSIS":"540.424","BSTAR":"0.00005985600000","EPHEMERIS_TYPE":"0","INCLINATION":"53.2176","REV_AT_EPOCH":"5208","MEAN_ELEMENT_THEORY":"SGP4","EPOCH":"2023-06-21T16:05:49.769088","ELEMENT_SET_NO":"999","MEAN_ANOMALY":"275.4690","CLASSIFICATION_TYPE":"U","OBJECT_ID":"2022-083D","OBJECT_NAME":"STARLINK-4023","SEMIMAJOR_AXIS":"6917.874","OBJECT_TYPE":"PAYLOAD","TLE_LINE2":"2 53135  53.2176 307.4691 0000989  84.6415 275.4690 15.08841957 52083","LAUNCH_DATE":"2022-07-17","MEAN_MOTION_DDOT":"0.0000000000000","MEAN_MOTION_DOT":"0.00000665"},{"NORAD_CAT_ID":"53136","RCS_SIZE":"LARGE","ARG_OF_PERICENTER":"72.9581","PERIOD":"95.437","RA_OF_ASC_NODE":"307.4825","SITE":"AFETR","REF_FRAME":"TEME","TLE_LINE1":"1 53136U 22083E   23172.66703034  .00001500  00000-0  11227-3 0  9999","APOAPSIS":"540.451","COUNTRY_CODE":"US","PERIAPSIS":"538.998","CENTER_NAME":"EARTH","DECAY_DATE":null,"MEAN_MOTION":"15.08846944","GP_ID":"234440487","FILE":"3939230","ECCENTRICITY":"0.00010500","TIME_SYSTEM":"UTC","OBJECT_NAME":"STARLINK-4152","OBJECT_ID":"2022-083E","OBJECT_TYPE":"PAYLOAD","SEMIMAJOR_AXIS":"6917.859","LAUNCH_DATE":"2022-07-17","TLE_LINE2":"2 53136  53.2177 307.4825 0001050  72.9581 287.1527 15.08846944 52088","MEAN_MOTION_DOT":"0.00001500","MEAN_MOTION_DDOT":"0.0000000000000","EPHEMERIS_TYPE":"0","BSTAR":"0.00011227000000","MEAN_ELEMENT_THEORY":"SGP4","REV_AT_EPOCH":"5208","INCLINATION":"53.2177","CLASSIFICATION_TYPE":"U","MEAN_ANOMALY":"287.1527","ELEMENT_SET_NO":"999","EPOCH":"2023-06-21T16:00:31.421376"},{"REV_AT_EPOCH":"5208","INCLINATION":"53.2177","MEAN_ELEMENT_THEORY":"SGP4","EPHEMERIS_TYPE":"0","BSTAR":"0.00010076000000","EPOCH":"2023-06-21T15:49:55.828416","MEAN_ANOMALY":"283.6389","CLASSIFICATION_TYPE":"U","ELEMENT_SET_NO":"999","SEMIMAJOR_AXIS":"6917.871","OBJECT_TYPE":"PAYLOAD","OBJECT_NAME":"STARLINK-4145","OBJECT_ID":"2022-083F","MEAN_MOTION_DDOT":"0.0000000000000","MEAN_MOTION_DOT":"0.00001316","TLE_LINE2":"2 53137  53.2177 307.5126 0000946  76.4708 283.6389 15.08842950 52087","LAUNCH_DATE":"2022-07-17","GP_ID":"234440490","FILE":"3939230","ECCENTRICITY":"0.00009460","MEAN_MOTION":"15.08842950","CENTER_NAME":"EARTH","DECAY_DATE":null,"COUNTRY_CODE":"US","PERIAPSIS":"539.082","TIME_SYSTEM":"UTC","SITE":"AFETR","REF_FRAME":"TEME","TLE_LINE1":"1 53137U 22083F   23172.65967394  .00001316  00000-0  10076-3 0  9996","RA_OF_ASC_NODE":"307.5126","RCS_SIZE":"LARGE","PERIOD":"95.437","ARG_OF_PERICENTER":"76.4708","NORAD_CAT_ID":"53137","APOAPSIS":"540.391"}];
